STARLINK-4534           
1 53395U 22097H   22235.58334491 -.00018304  00000+0 -12613-3 0  9999
2 53395  53.2198 181.8001 0001047  80.8736 189.6805 15.73229038  1309
STARLINK-4524           
1 53396U 22097J   22235.58334491  .00010981  00000+0  82560-4 0  9990
2 53396  53.2202 181.7969 0000984  75.8135 197.1703 15.73196748  1306
STARLINK-4515           
1 53397U 22097K   22235.58334491 -.00092396  00000+0 -65995-3 0  9995
2 53397  53.2203 181.8005 0001098  79.2027 191.9325 15.73243181  1301
STARLINK-4512           
1 53398U 22097L   22235.58334491  .00011241  00000+0  84410-4 0  9998
2 53398  53.2201 181.7940 0001167  80.5197 193.6125 15.73196763  1307
STARLINK-4528           
1 53399U 22097M   22235.58334491  .00003258  00000+0  27586-4 0  9999
2 53399  53.2199 181.7968 0001353  80.0827 192.2077 15.73235139  1308
STARLINK-4520           
1 53400U 22097N   22235.58334491 -.00094971  00000+0 -67885-3 0  9991
2 53400  53.2199 181.7913 0001253  73.3555 201.9765 15.73236597  1304
STARLINK-4525           
1 53401U 22097P   22235.58334491  .00010852  00000+0  81652-4 0  9995
2 53401  53.2194 181.7930 0000910  83.5924 189.9238 15.73194725  1307
STARLINK-4499           
1 53402U 22097Q   22235.58334491 -.00074776  00000+0 -53218-3 0  9999
2 53402  53.2200 181.7901 0000778  84.8372 191.0927 15.73241937  1304
STARLINK-4507           
1 53403U 22097R   22235.58334491  .00009812  00000+0  74220-4 0  9994
2 53403  53.2200 181.7927 0001145  78.3168 196.3829 15.73207950  1309
STARLINK-4509           
1 53404U 22097S   22235.58334491 -.00082005  00000+0 -58514-3 0  9999
2 53404  53.2197 181.7861 0001163  78.3601 199.3612 15.73217792  1302
STARLINK-4510           
1 53405U 22097T   22235.58334491 -.00072655  00000+0 -51720-3 0  9992
2 53405  53.2200 181.7886 0001222  80.8740 195.6506 15.73224039  1306
STARLINK-4533           
1 53406U 22097U   22235.58334491 -.00088886  00000+0 -63474-3 0  9995
2 53406  53.2199 181.7792 0001105  75.2382 206.0711 15.73232367  1308
STARLINK-4537           
1 53407U 22097V   22235.58334491  .00009059  00000+0  68939-4 0  9991
2 53407  53.2205 181.7892 0001027  72.7567 204.3472 15.73184318  1305
STARLINK-4491           
1 53408U 22097W   22235.58334491 -.00053238  00000+0 -37688-3 0  9998
2 53408  53.2204 181.7849 0001226  65.0388 214.4642 15.73226775  1309
STARLINK-4490           
1 53409U 22097X   22235.58334491  .00009947  00000+0  75220-4 0  9990
2 53409  53.2196 181.7843 0001025  73.5470 204.7995 15.73194626  1309
STARLINK-4492           
1 53410U 22097Y   22235.58334491 -.00094302  00000+0 -67359-3 0  9996
2 53410  53.2205 181.7839 0001145  72.8543 207.2114 15.73250631  1303
STARLINK-4497           
1 53411U 22097Z   22235.58334491 -.00093558  00000+0 -66848-3 0  9991
2 53411  53.2205 181.7860 0001116  87.6648 191.2253 15.73240374  1305
STARLINK-4496           
1 53412U 22097AA  22235.58334491  .00010527  00000+0  79332-4 0  9998
2 53412  53.2204 181.7798 0000800  73.2006 208.7138 15.73196591  1300
STARLINK-4500           
1 53413U 22097AB  22235.58334491 -.00004656  00000+0 -28726-4 0  9998
2 53413  53.2202 181.7817 0001267  75.8185 204.8052 15.73239079  1306
STARLINK-4304           
1 53414U 22097AC  22235.58334491  .00010883  00000+0  81834-4 0  9995
2 53414  53.2201 181.7778 0001311  81.8426 200.5529 15.73207017  1306
STARLINK-4479           
1 53415U 22097AD  22235.58334491 -.00088128  00000+0 -62924-3 0  9993
2 53415  53.2206 181.7773 0001145  65.3436 217.7414 15.73231884  1302
STARLINK-4480           
1 53416U 22097AE  22235.58334491  .00012291  00000+0  91932-4 0  9992
2 53416  53.2192 181.7700 0000952  70.7152 214.1445 15.73181549  1304
STARLINK-4484           
1 53417U 22097AF  22235.58334491 -.00051448  00000+0 -36391-3 0  9999
2 53417  53.2202 181.7756 0001311  76.4916 207.2063 15.73231128  1307
STARLINK-4481           
1 53418U 22097AG  22235.58334491  .00720848  00000+0  49453-2 0  9997
2 53418  53.2184 181.6623 0001172  73.1237 265.0998 15.72061181  1302
STARLINK-4476           
1 53419U 22097AH  22235.58334491  .00011198  00000+0  84114-4 0  9994
2 53419  53.2200 181.7736 0000920  65.4749 218.7649 15.73193818  1302
STARLINK-4552           
1 53420U 22097AJ  22235.58334491 -.00088797  00000+0 -63380-3 0  9998
2 53420  53.2204 181.7693 0001161  86.0995 201.1110 15.73242944  1304
STARLINK-4545           
1 53421U 22097AK  22235.58334491 -.00068075  00000+0 -48416-3 0  9999
2 53421  53.2201 181.7714 0001201  79.3753 206.1050 15.73219011  1305
STARLINK-4546           
1 53422U 22097AL  22235.58334491 -.00093076  00000+0 -66532-3 0  9998
2 53422  53.2201 181.7657 0001053  75.9596 212.5204 15.73228451  1304
STARLINK-4539           
1 53423U 22097AM  22235.58334491 -.00094707  00000+0 -67668-3 0  9992
2 53423  53.2205 181.7719 0001278  75.4298 210.5966 15.73245135  1302
STARLINK-4532           
1 53424U 22097AN  22235.58334491 -.00080649  00000+0 -57487-3 0  9991
2 53424  53.2201 181.7638 0001185  84.4331 205.1725 15.73235186  1302
STARLINK-4531           
1 53425U 22097AP  22235.58334491 -.00083244  00000+0 -59410-3 0  9994
2 53425  53.2202 181.7669 0001142  82.7087 205.1767 15.73219298  1302
STARLINK-4558           
1 53426U 22097AQ  22235.58334491 -.00081353  00000+0 -57999-3 0  9994
2 53426  53.2201 181.7626 0001259  82.0031 208.2279 15.73234256  1309
STARLINK-4541           
1 53427U 22097AR  22235.58334491  .00011126  00000+0  83532-4 0  9997
2 53427  53.2198 181.7637 0001425  82.5304 206.4526 15.73215627  1306
STARLINK-4540           
1 53428U 22097AS  22235.58334491  .00011662  00000+0  87309-4 0  9999
2 53428  53.2198 181.7580 0001298  79.3551 212.6191 15.73222962  1307
STARLINK-4543           
1 53429U 22097AT  22235.58334491 -.00080969  00000+0 -57771-3 0  9997
2 53429  53.2201 181.7587 0001013  85.7313 205.7015 15.73214658  1303
STARLINK-4538           
1 53430U 22097AU  22235.58334491  .00010212  00000+0  77040-4 0  9993
2 53430  53.2201 181.7577 0000848  71.6611 220.9662 15.73213522  1300
STARLINK-4548           
1 53431U 22097AV  22235.58334491 -.00084921  00000+0 -60627-3 0  9996
2 53431  53.2201 181.7611 0001292  69.8820 220.9462 15.73219318  1302
STARLINK-4557           
1 53432U 22097AW  22235.58334491 -.00004743  00000+0 -29392-4 0  9996
2 53432  53.2175 181.7506 0000882  71.9745 222.4221 15.73206309  1306
STARLINK-4549           
1 53433U 22097AX  22235.58334491 -.00096288  00000+0 -68839-3 0  9990
2 53433  53.2200 181.7559 0001087  70.9107 222.3239 15.73238580  1307
STARLINK-4498           
1 53434U 22097AY  22235.58334491 -.00072196  00000+0 -51418-3 0  9998
2 53434  53.2200 181.7516 0001397  75.1439 220.4893 15.73209809  1307
STARLINK-4542           
1 53435U 22097AZ  22235.58334491  .00012150  00000+0  90927-4 0  9990
2 53435  53.2205 181.7561 0001050  81.8227 211.9567 15.73182191  1305
STARLINK-4527           
1 53436U 22097BA  22235.58334491 -.00081510  00000+0 -58151-3 0  9991
2 53436  53.2200 181.7502 0001217  73.5131 222.6986 15.73219358  1303
STARLINK-4526           
1 53438U 22097BC  22235.58334491  .00088863  00000+0  63291-3 0  9990
2 53438  53.2184 181.7472 0001326  78.0642 218.7774 15.73125350  1309
STARLINK-4519           
1 53439U 22097BD  22235.58334491 -.00004544  00000+0 -27974-4 0  9996
2 53439  53.2175 181.7441 0001147  85.6763 211.7009 15.73206199  1300
FALCON 9 DEB            
1 53440U 22097BE  22235.43409818  .00820914  11618-4  61309-3 0  9994
2 53440  53.2205 180.6148 0049193  95.5606 265.1044 16.11825745  2172
FALCON 9 DEB            
1 53441U 22097BF  22235.43012566  .00766781  11624-4  57651-3 0  9998
2 53441  53.2160 180.5811 0045798  96.5747 264.0506 16.12107454  2175
FALCON 9 DEB            
1 53442U 22097BG  22235.41969066  .00748880  11664-4  51408-3 0  9991
2 53442  53.2186 180.5033 0043369  89.6924 270.9083 16.13583419  2178
FALCON 9 DEB            
1 53443U 22097BH  22235.41731432  .00829964  11685-4  53761-3 0  9996
2 53443  53.2196 180.4885 0042418  91.5452 269.0446 16.14441703  2178
2022-098A               
1 53444U 22098A   22235.52764714  .00003261  00000+0  21118-3 0  9998
2 53444  97.5308 331.6267 0010852 202.0405 252.4267 15.08802178  2012
2022-098B               
1 53445U 22098B   22235.52195390  .00003198  00000+0  20370-3 0  9995
2 53445  97.5325 331.6394 0008693 213.4386 240.5715 15.09438482  1993
2022-098C               
1 53446U 22098C   22235.52664634  .00003226  00000+0  20831-3 0  9992
2 53446  97.5349 331.6365 0010919 206.3875 248.0217 15.08914053  1998
2022-098D               
1 53447U 22098D   22235.52535328  .00003213  00000+0  20668-3 0  9994
2 53447  97.5258 331.6207 0010414 207.9291 246.3654 15.09058473  1994
2022-098E               
1 53448U 22098E   22235.52371943  .00003180  00000+0  20360-3 0  9998
2 53448  97.5332 331.6375 0010858 214.2514 239.9356 15.09240950  1995
2022-098F               
1 53449U 22098F   22235.52292450  .00003173  00000+0  20267-3 0  9992
2 53449  97.5280 331.6270 0010476 215.7141 238.3732 15.09329399  1996
2022-098G               
1 53450U 22098G   22235.52129516  .00003138  00000+0  19946-3 0  9999
2 53450  97.5328 331.6395 0007838 214.2684 240.5765 15.09530138  1999
2022-098H               
1 53451U 22098H   22235.52054134  .00003150  00000+0  19977-3 0  9991
2 53451  97.5371 331.6499 0008438 219.6544 234.8379 15.09608252  1994
2022-098J               
1 53452U 22098J   22235.51976730  .00003197  00000+0  20216-3 0  9995
2 53452  97.5276 331.6324 0008405 220.5419 234.1734 15.09701636  1990
2022-098K               
1 53453U 22098K   22235.51991472  .00003138  00000+0  19806-3 0  9994
2 53453  97.5327 331.6441 0009191 223.7180 235.7212 15.09782773  1990
2022-098L               
1 53454U 22098L   22235.51744356  .00005127  00000+0  31912-3 0  9994
2 53454  97.5272 331.6333 0010867 232.1858 222.4161 15.09987761  1998
